2025-274B               
1 66651U 25274B   25346.28198700  .00006730  00000+0  67191-3 0  9991
2 66651  97.7380 273.4793 0010591 252.1037 107.9028 14.91793861  2335
2025-274C               
1 66652U 25274C   25346.28058191  .00003922  00000+0  39309-3 0  9991
2 66652  97.7384 273.4821 0010254 259.1477 100.8588 14.91893997  2337
2025-274D               
1 66653U 25274D   25346.28050957  .00004744  00000+0  47404-3 0  9992
2 66653  97.7384 273.4819 0011146 255.0642 104.9343 14.91903217  2336
JACK E                  
1 66654U 25274E   25346.21169595  .00004894  00000+0  48667-3 0  9993
2 66654  97.7387 273.4187 0011759 257.0683 102.9223 14.92078144  2322
2025-274F               
1 66655U 25274F   25344.60023870  .00000138  00000+0  19321-4 0  9993
2 66655  97.7323 271.8405 0004698  22.2473 337.8948 14.91412977  2082
2025-274G               
1 66656U 25274G   25346.27683767  .00005290  00000+0  52299-3 0  9990
2 66656  97.7384 273.4867 0012369 258.6649 101.3181 14.92269909  2331
SPIRONE                 
1 66657U 25274H   25346.27497077  .00005202  00000+0  51223-3 0  9997
2 66657  97.7381 273.4886 0010735 277.7668  82.2332 14.92448984  2335
2025-274J               
1 66658U 25274J   25346.27315145  .00004921  00000+0  48276-3 0  9994
2 66658  97.7381 273.4912 0011318 280.6697  79.3247 14.92619719  2337
JACK K                  
1 66659U 25274K   25346.27121160  .00004716  00000+0  46069-3 0  9997
2 66659  97.7382 273.4942 0012066 282.1190  77.8678 14.92804314  2336
K-HERO                  
1 66660U 25274L   25346.26964583  .00004432  00000+0  43164-3 0  9990
2 66660  97.7386 273.4968 0012690 282.6220  77.3580 14.92954618  2332
SNUGLITE-III            
1 66661U 25274M   25346.26808748  .00004078  00000+0  39614-3 0  9992
2 66661  97.7383 273.4984 0013390 283.7160  76.2569 14.93093703  2336
2025-274N               
1 66662U 25274N   25346.26747664  .00004408  00000+0  42715-3 0  9995
2 66662  97.7384 273.4993 0013832 283.3595  76.6083 14.93144928  2338
