CCSDS_OMM_VERS = 2.0
CREATION_DATE  = 
ORIGINATOR     = 

OBJECT_NAME    = 2025-274B
OBJECT_ID      = 2025-274B
CENTER_NAME    = EARTH
REF_FRAME      = TEME
TIME_SYSTEM    = UTC
MEAN_ELEMENT_THEORY = SGP/SGP4

EPOCH          = 2025-12-12T06:46:03.676800
MEAN_MOTION    = 14.91793861
ECCENTRICITY   = .00105918
INCLINATION    = 97.7380
RA_OF_ASC_NODE = 273.4793
ARG_OF_PERICENTER = 252.1037
MEAN_ANOMALY   = 107.9028

EPHEMERIS_TYPE = 0
CLASSIFICATION_TYPE = U
NORAD_CAT_ID   = 66651
ELEMENT_SET_NO = 999
REV_AT_EPOCH   = 233
BSTAR          = .67190686E-3
MEAN_MOTION_DOT = .673E-4
MEAN_MOTION_DDOT = 0

CCSDS_OMM_VERS = 2.0
CREATION_DATE  = 
ORIGINATOR     = 

OBJECT_NAME    = 2025-274C
OBJECT_ID      = 2025-274C
CENTER_NAME    = EARTH
REF_FRAME      = TEME
TIME_SYSTEM    = UTC
MEAN_ELEMENT_THEORY = SGP/SGP4

EPOCH          = 2025-12-12T06:44:02.277024
MEAN_MOTION    = 14.91893997
ECCENTRICITY   = .00102548
INCLINATION    = 97.7384
RA_OF_ASC_NODE = 273.4821
ARG_OF_PERICENTER = 259.1477
MEAN_ANOMALY   = 100.8588

EPHEMERIS_TYPE = 0
CLASSIFICATION_TYPE = U
NORAD_CAT_ID   = 66652
ELEMENT_SET_NO = 999
REV_AT_EPOCH   = 233
BSTAR          = .3930876E-3
MEAN_MOTION_DOT = .3922E-4
MEAN_MOTION_DDOT = 0

CCSDS_OMM_VERS = 2.0
CREATION_DATE  = 
ORIGINATOR     = 

OBJECT_NAME    = 2025-274D
OBJECT_ID      = 2025-274D
CENTER_NAME    = EARTH
REF_FRAME      = TEME
TIME_SYSTEM    = UTC
MEAN_ELEMENT_THEORY = SGP/SGP4

EPOCH          = 2025-12-12T06:43:56.026848
MEAN_MOTION    = 14.91903217
ECCENTRICITY   = .00111463
INCLINATION    = 97.7384
RA_OF_ASC_NODE = 273.4819
ARG_OF_PERICENTER = 255.0642
MEAN_ANOMALY   = 104.9343

EPHEMERIS_TYPE = 0
CLASSIFICATION_TYPE = U
NORAD_CAT_ID   = 66653
ELEMENT_SET_NO = 999
REV_AT_EPOCH   = 233
BSTAR          = .47403777E-3
MEAN_MOTION_DOT = .4744E-4
MEAN_MOTION_DDOT = 0

CCSDS_OMM_VERS = 2.0
CREATION_DATE  = 
ORIGINATOR     = 

OBJECT_NAME    = JACK E
OBJECT_ID      = 2025-274E
CENTER_NAME    = EARTH
REF_FRAME      = TEME
TIME_SYSTEM    = UTC
MEAN_ELEMENT_THEORY = SGP/SGP4

EPOCH          = 2025-12-12T05:04:50.530080
MEAN_MOTION    = 14.92078144
ECCENTRICITY   = .00117599
INCLINATION    = 97.7387
RA_OF_ASC_NODE = 273.4187
ARG_OF_PERICENTER = 257.0683
MEAN_ANOMALY   = 102.9223

EPHEMERIS_TYPE = 0
CLASSIFICATION_TYPE = U
NORAD_CAT_ID   = 66654
ELEMENT_SET_NO = 999
REV_AT_EPOCH   = 232
BSTAR          = .48666514E-3
MEAN_MOTION_DOT = .4894E-4
MEAN_MOTION_DDOT = 0

CCSDS_OMM_VERS = 2.0
CREATION_DATE  = 
ORIGINATOR     = 

OBJECT_NAME    = 2025-274F
OBJECT_ID      = 2025-274F
CENTER_NAME    = EARTH
REF_FRAME      = TEME
TIME_SYSTEM    = UTC
MEAN_ELEMENT_THEORY = SGP/SGP4

EPOCH          = 2025-12-10T14:24:20.623680
MEAN_MOTION    = 14.91412977
ECCENTRICITY   = .0004698
INCLINATION    = 97.7323
RA_OF_ASC_NODE = 271.8405
ARG_OF_PERICENTER = 22.2473
MEAN_ANOMALY   = 337.8948

EPHEMERIS_TYPE = 0
CLASSIFICATION_TYPE = U
NORAD_CAT_ID   = 66655
ELEMENT_SET_NO = 999
REV_AT_EPOCH   = 208
BSTAR          = .19321E-4
MEAN_MOTION_DOT = .138E-5
MEAN_MOTION_DDOT = 0

CCSDS_OMM_VERS = 2.0
CREATION_DATE  = 
ORIGINATOR     = 

OBJECT_NAME    = 2025-274G
OBJECT_ID      = 2025-274G
CENTER_NAME    = EARTH
REF_FRAME      = TEME
TIME_SYSTEM    = UTC
MEAN_ELEMENT_THEORY = SGP/SGP4

EPOCH          = 2025-12-12T06:38:38.774688
MEAN_MOTION    = 14.92269909
ECCENTRICITY   = .00123697
INCLINATION    = 97.7384
RA_OF_ASC_NODE = 273.4867
ARG_OF_PERICENTER = 258.6649
MEAN_ANOMALY   = 101.3181

EPHEMERIS_TYPE = 0
CLASSIFICATION_TYPE = U
NORAD_CAT_ID   = 66656
ELEMENT_SET_NO = 999
REV_AT_EPOCH   = 233
BSTAR          = .52299282E-3
MEAN_MOTION_DOT = .529E-4
MEAN_MOTION_DDOT = 0

CCSDS_OMM_VERS = 2.0
CREATION_DATE  = 
ORIGINATOR     = 

OBJECT_NAME    = SPIRONE
OBJECT_ID      = 2025-274H
CENTER_NAME    = EARTH
REF_FRAME      = TEME
TIME_SYSTEM    = UTC
MEAN_ELEMENT_THEORY = SGP/SGP4

EPOCH          = 2025-12-12T06:35:57.474528
MEAN_MOTION    = 14.92448984
ECCENTRICITY   = .00107358
INCLINATION    = 97.7381
RA_OF_ASC_NODE = 273.4886
ARG_OF_PERICENTER = 277.7668
MEAN_ANOMALY   = 82.2332

EPHEMERIS_TYPE = 0
CLASSIFICATION_TYPE = U
NORAD_CAT_ID   = 66657
ELEMENT_SET_NO = 999
REV_AT_EPOCH   = 233
BSTAR          = .5122317E-3
MEAN_MOTION_DOT = .5202E-4
MEAN_MOTION_DDOT = 0

CCSDS_OMM_VERS = 2.0
CREATION_DATE  = 
ORIGINATOR     = 

OBJECT_NAME    = 2025-274J
OBJECT_ID      = 2025-274J
CENTER_NAME    = EARTH
REF_FRAME      = TEME
TIME_SYSTEM    = UTC
MEAN_ELEMENT_THEORY = SGP/SGP4

EPOCH          = 2025-12-12T06:33:20.285280
MEAN_MOTION    = 14.92619719
ECCENTRICITY   = .00113189
INCLINATION    = 97.7381
RA_OF_ASC_NODE = 273.4912
ARG_OF_PERICENTER = 280.6697
MEAN_ANOMALY   = 79.3247

EPHEMERIS_TYPE = 0
CLASSIFICATION_TYPE = U
NORAD_CAT_ID   = 66658
ELEMENT_SET_NO = 999
REV_AT_EPOCH   = 233
BSTAR          = .48276309E-3
MEAN_MOTION_DOT = .4921E-4
MEAN_MOTION_DDOT = 0

CCSDS_OMM_VERS = 2.0
CREATION_DATE  = 
ORIGINATOR     = 

OBJECT_NAME    = JACK K
OBJECT_ID      = 2025-274K
CENTER_NAME    = EARTH
REF_FRAME      = TEME
TIME_SYSTEM    = UTC
MEAN_ELEMENT_THEORY = SGP/SGP4

EPOCH          = 2025-12-12T06:30:32.682240
MEAN_MOTION    = 14.92804314
ECCENTRICITY   = .0012066
INCLINATION    = 97.7382
RA_OF_ASC_NODE = 273.4942
ARG_OF_PERICENTER = 282.1190
MEAN_ANOMALY   = 77.8678

EPHEMERIS_TYPE = 0
CLASSIFICATION_TYPE = U
NORAD_CAT_ID   = 66659
ELEMENT_SET_NO = 999
REV_AT_EPOCH   = 233
BSTAR          = .46069266E-3
MEAN_MOTION_DOT = .4716E-4
MEAN_MOTION_DDOT = 0

CCSDS_OMM_VERS = 2.0
CREATION_DATE  = 
ORIGINATOR     = 

OBJECT_NAME    = K-HERO
OBJECT_ID      = 2025-274L
CENTER_NAME    = EARTH
REF_FRAME      = TEME
TIME_SYSTEM    = UTC
MEAN_ELEMENT_THEORY = SGP/SGP4

EPOCH          = 2025-12-12T06:28:17.399712
MEAN_MOTION    = 14.92954618
ECCENTRICITY   = .00126905
INCLINATION    = 97.7386
RA_OF_ASC_NODE = 273.4968
ARG_OF_PERICENTER = 282.6220
MEAN_ANOMALY   = 77.3580

EPHEMERIS_TYPE = 0
CLASSIFICATION_TYPE = U
NORAD_CAT_ID   = 66660
ELEMENT_SET_NO = 999
REV_AT_EPOCH   = 233
BSTAR          = .43164249E-3
MEAN_MOTION_DOT = .4432E-4
MEAN_MOTION_DDOT = 0

CCSDS_OMM_VERS = 2.0
CREATION_DATE  = 
ORIGINATOR     = 

OBJECT_NAME    = SNUGLITE-III
OBJECT_ID      = 2025-274M
CENTER_NAME    = EARTH
REF_FRAME      = TEME
TIME_SYSTEM    = UTC
MEAN_ELEMENT_THEORY = SGP/SGP4

EPOCH          = 2025-12-12T06:26:02.758272
MEAN_MOTION    = 14.93093703
ECCENTRICITY   = .001339
INCLINATION    = 97.7383
RA_OF_ASC_NODE = 273.4984
ARG_OF_PERICENTER = 283.7160
MEAN_ANOMALY   = 76.2569

EPHEMERIS_TYPE = 0
CLASSIFICATION_TYPE = U
NORAD_CAT_ID   = 66661
ELEMENT_SET_NO = 999
REV_AT_EPOCH   = 233
BSTAR          = .39614497E-3
MEAN_MOTION_DOT = .4078E-4
MEAN_MOTION_DDOT = 0

CCSDS_OMM_VERS = 2.0
CREATION_DATE  = 
ORIGINATOR     = 

OBJECT_NAME    = 2025-274N
OBJECT_ID      = 2025-274N
CENTER_NAME    = EARTH
REF_FRAME      = TEME
TIME_SYSTEM    = UTC
MEAN_ELEMENT_THEORY = SGP/SGP4

EPOCH          = 2025-12-12T06:25:09.981696
MEAN_MOTION    = 14.93144928
ECCENTRICITY   = .0013832
INCLINATION    = 97.7384
RA_OF_ASC_NODE = 273.4993
ARG_OF_PERICENTER = 283.3595
MEAN_ANOMALY   = 76.6083

EPHEMERIS_TYPE = 0
CLASSIFICATION_TYPE = U
NORAD_CAT_ID   = 66662
ELEMENT_SET_NO = 999
REV_AT_EPOCH   = 233
BSTAR          = .42714878E-3
MEAN_MOTION_DOT = .4408E-4
MEAN_MOTION_DDOT = 0

